STARLINK-5455           
1 55668U 23021AS  26068.69367912 -.00000603  00000+0 -42751-4 0  9996
2 55668  70.0008 164.5072 0003390 273.9527  86.1245 14.98332438169278
ICEYE-X48               
1 63253U 25052AV  26068.70765702  .00004541  00000+0  39589-3 0  9999
2 63253  97.6979 322.3976 0002688 141.7433 218.3980 14.97356709 53782
